{
"type": "FeatureCollection",
"name": "LCC_Border",
"crs": { "type": "name", "properties": { "name": "urn:ogc:def:crs:OGC:1.3:CRS84" } },
"features": [
{ "type": "Feature", "properties": { "G_UNIT": 0, "G_NAME": null, "NAMESTATUS": null, "G_LANGUAGE": null, "UNITTYPE": null, "G_STATUS": null, "NATION": null, "G_YEAR": 0, "IM_AUTH": null, "IM_NOTE": null, "NOTES": null }, "geometry": { "type": "Polygon", "coordinates": [ [ [ -0.06372, 51.576416 ], [ -0.062922, 51.576345 ], [ -0.062272, 51.576348 ], [ -0.061796, 51.576232 ], [ -0.061413, 51.575723 ], [ -0.060878, 51.575569 ], [ -0.060265, 51.575447 ], [ -0.059649, 51.575327 ], [ -0.05912, 51.575303 ], [ -0.058689, 51.575232 ], [ -0.058535, 51.575007 ], [ -0.058369, 51.574847 ], [ -0.057863, 51.574603 ], [ -0.057576, 51.574224 ], [ -0.056854, 51.574373 ], [ -0.056473, 51.574209 ], [ -0.056548, 51.573792 ], [ -0.056775, 51.573547 ], [ -0.057471, 51.573335 ], [ -0.057781, 51.573327 ], [ -0.058103, 51.573179 ], [ -0.05806, 51.572823 ], [ -0.057882, 51.572389 ], [ -0.057513, 51.572208 ], [ -0.056894, 51.572233 ], [ -0.056688, 51.57244 ], [ -0.056278, 51.57269 ], [ -0.055934, 51.572407 ], [ -0.055927, 51.572118 ], [ -0.056125, 51.571544 ], [ -0.056092, 51.571137 ], [ -0.055859, 51.570685 ], [ -0.055629, 51.570406 ], [ -0.054873, 51.570224 ], [ -0.054255, 51.570191 ], [ -0.053746, 51.569997 ], [ -0.053399, 51.569545 ], [ -0.053108, 51.569041 ], [ -0.052842, 51.56863 ], [ -0.052452, 51.568224 ], [ -0.051673, 51.567887 ], [ -0.050905, 51.567572 ], [ -0.05036, 51.567333 ], [ -0.049778, 51.566869 ], [ -0.049012, 51.566353 ], [ -0.048351, 51.565944 ], [ -0.047772, 51.565497 ], [ -0.046983, 51.565043 ], [ -0.046579, 51.564647 ], [ -0.046489, 51.564566 ], [ -0.04616, 51.564274 ], [ -0.045892, 51.564151 ], [ -0.045551, 51.563881 ], [ -0.045274, 51.563805 ], [ -0.045624, 51.5638 ], [ -0.045365, 51.563595 ], [ -0.044798, 51.563432 ], [ -0.044484, 51.563305 ], [ -0.043975, 51.563211 ], [ -0.044122, 51.563011 ], [ -0.044251, 51.562871 ], [ -0.044257, 51.56274 ], [ -0.043963, 51.562475 ], [ -0.043653, 51.562367 ], [ -0.043621, 51.562355 ], [ -0.043257, 51.562228 ], [ -0.04323, 51.562147 ], [ -0.043278, 51.562062 ], [ -0.043105, 51.561949 ], [ -0.042666, 51.56173 ], [ -0.041731, 51.561708 ], [ -0.041972, 51.561776 ], [ -0.041181, 51.561801 ], [ -0.0401, 51.561663 ], [ -0.039522, 51.561507 ], [ -0.03912, 51.561245 ], [ -0.038834, 51.561092 ], [ -0.037918, 51.561011 ], [ -0.037077, 51.561155 ], [ -0.036464, 51.561227 ], [ -0.035813, 51.561176 ], [ -0.035045, 51.560996 ], [ -0.034483, 51.560786 ], [ -0.033833, 51.560543 ], [ -0.033247, 51.560298 ], [ -0.032372, 51.560341 ], [ -0.031713, 51.560537 ], [ -0.0314, 51.560628 ], [ -0.031486, 51.560931 ], [ -0.032153, 51.561103 ], [ -0.032524, 51.561009 ], [ -0.032765, 51.561217 ], [ -0.032628, 51.561454 ], [ -0.031845, 51.561513 ], [ -0.030472, 51.56158 ], [ -0.029937, 51.561463 ], [ -0.029402, 51.561208 ], [ -0.028636, 51.560903 ], [ -0.027958, 51.560779 ], [ -0.027401, 51.560533 ], [ -0.026815, 51.560117 ], [ -0.026187, 51.559935 ], [ -0.025811, 51.559862 ], [ -0.025368, 51.559638 ], [ -0.024794, 51.559243 ], [ -0.024357, 51.558762 ], [ -0.024023, 51.558325 ], [ -0.023872, 51.55763 ], [ -0.023559, 51.557193 ], [ -0.023363, 51.557004 ], [ -0.022776, 51.556879 ], [ -0.022222, 51.556733 ], [ -0.021712, 51.556586 ], [ -0.021054, 51.556317 ], [ -0.020414, 51.556056 ], [ -0.019919, 51.55583 ], [ -0.019648, 51.555578 ], [ -0.019379, 51.555207 ], [ -0.019008, 51.555126 ], [ -0.018548, 51.555029 ], [ -0.018267, 51.554674 ], [ -0.018099, 51.55421 ], [ -0.017878, 51.553641 ], [ -0.017718, 51.553099 ], [ -0.017581, 51.55243 ], [ -0.017432, 51.551449 ], [ -0.017487, 51.551433 ], [ -0.017468, 51.551121 ], [ -0.017609, 51.550915 ], [ -0.017579, 51.550406 ], [ -0.017567, 51.549793 ], [ -0.017079, 51.548911 ], [ -0.016838, 51.548002 ], [ -0.01652, 51.547 ], [ -0.016423, 51.546392 ], [ -0.016523, 51.545695 ], [ -0.016743, 51.54512 ], [ -0.016852, 51.544486 ], [ -0.01677, 51.544261 ], [ -0.016654, 51.543889 ], [ -0.016487, 51.543335 ], [ -0.016319, 51.54258 ], [ -0.01613, 51.541948 ], [ -0.016344, 51.541583 ], [ -0.01673, 51.541517 ], [ -0.016843, 51.541279 ], [ -0.016912, 51.540978 ], [ -0.017252, 51.540748 ], [ -0.017954, 51.540593 ], [ -0.018248, 51.540216 ], [ -0.018297, 51.539723 ], [ -0.018605, 51.539398 ], [ -0.019108, 51.539069 ], [ -0.019377, 51.53852 ], [ -0.019771, 51.538037 ], [ -0.01988, 51.537738 ], [ -0.019508, 51.537643 ], [ -0.01975, 51.537041 ], [ -0.018672, 51.536709 ], [ -0.017887, 51.536515 ], [ -0.015443, 51.53468 ], [ -0.017931, 51.533721 ], [ -0.017923, 51.533527 ], [ -0.017891, 51.533086 ], [ -0.017536, 51.53259 ], [ -0.017344, 51.532288 ], [ -0.01695, 51.531914 ], [ -0.016723, 51.531618 ], [ -0.016662, 51.531338 ], [ -0.016279, 51.531076 ], [ -0.015885, 51.530999 ], [ -0.015155, 51.530824 ], [ -0.014751, 51.530654 ], [ -0.014625, 51.530342 ], [ -0.014619, 51.52992 ], [ -0.014449, 51.529722 ], [ -0.013922, 51.529597 ], [ -0.013462, 51.529462 ], [ -0.012388, 51.529391 ], [ -0.011838, 51.529319 ], [ -0.011352, 51.529248 ], [ -0.011184, 51.529077 ], [ -0.011059, 51.528831 ], [ -0.010911, 51.528508 ], [ -0.010541, 51.528137 ], [ -0.010272, 51.52803 ], [ -0.009887, 51.527859 ], [ -0.009538, 51.527602 ], [ -0.009131, 51.527313 ], [ -0.00901, 51.526977 ], [ -0.008811, 51.526674 ], [ -0.00846, 51.526386 ], [ -0.008067, 51.525901 ], [ -0.008041, 51.525516 ], [ -0.008322, 51.524977 ], [ -0.008528, 51.524545 ], [ -0.008589, 51.523859 ], [ -0.008508, 51.523428 ], [ -0.008356, 51.52305 ], [ -0.008236, 51.522696 ], [ -0.008451, 51.522327 ], [ -0.008867, 51.521757 ], [ -0.00906, 51.521287 ], [ -0.009364, 51.520845 ], [ -0.009545, 51.5203 ], [ -0.00936, 51.519819 ], [ -0.009076, 51.519528 ], [ -0.008301, 51.519167 ], [ -0.007548, 51.518821 ], [ -0.007082, 51.518492 ], [ -0.006733, 51.518174 ], [ -0.006254, 51.517561 ], [ -0.006087, 51.516975 ], [ -0.006009, 51.516539 ], [ -0.005573, 51.516333 ], [ -0.004929, 51.5166 ], [ -0.004498, 51.517049 ], [ -0.004096, 51.517567 ], [ -0.003626, 51.517793 ], [ -0.00308, 51.517892 ], [ -0.002729, 51.517844 ], [ -0.002099, 51.517631 ], [ -0.00134, 51.517171 ], [ -0.000507, 51.516733 ], [ 0.000333, 51.51645 ], [ 0.001249, 51.516102 ], [ 0.001968, 51.51584 ], [ 0.002585, 51.515567 ], [ 0.003408, 51.515011 ], [ 0.003372, 51.514825 ], [ 0.003289, 51.514534 ], [ 0.003237, 51.514228 ], [ 0.003011, 51.513751 ], [ 0.002634, 51.513007 ], [ 0.002315, 51.51232 ], [ 0.001887, 51.511449 ], [ 0.001706, 51.511105 ], [ 0.001849, 51.510767 ], [ 0.002044, 51.510575 ], [ 0.002445, 51.510435 ], [ 0.00281, 51.510493 ], [ 0.003428, 51.510662 ], [ 0.003695, 51.510934 ], [ 0.003896, 51.511424 ], [ 0.004082, 51.511931 ], [ 0.004112, 51.512411 ], [ 0.004156, 51.513039 ], [ 0.004214, 51.513542 ], [ 0.004327, 51.51381 ], [ 0.004764, 51.514186 ], [ 0.005093, 51.514329 ], [ 0.005372, 51.514361 ], [ 0.005812, 51.514353 ], [ 0.006327, 51.514147 ], [ 0.006674, 51.51375 ], [ 0.006698, 51.513429 ], [ 0.006737, 51.512759 ], [ 0.006496, 51.511942 ], [ 0.006008, 51.511173 ], [ 0.005401, 51.510502 ], [ 0.005199, 51.510164 ], [ 0.005286, 51.509942 ], [ 0.005498, 51.509762 ], [ 0.005899, 51.509661 ], [ 0.006692, 51.509599 ], [ 0.007607, 51.509448 ], [ 0.008265, 51.509235 ], [ 0.008774, 51.509005 ], [ 0.0089, 51.508747 ], [ 0.008887, 51.508385 ], [ 0.008778, 51.50795 ], [ 0.008695, 51.507598 ], [ 0.008247, 51.507081 ], [ 0.006794, 51.505597 ], [ 0.007788, 51.504973 ], [ 0.009272, 51.504024 ], [ 0.010835, 51.502891 ], [ 0.012707, 51.501405 ], [ 0.014605, 51.500018 ], [ 0.016782, 51.498542 ], [ 0.018288, 51.497884 ], [ 0.020212, 51.497183 ], [ 0.022774, 51.496558 ], [ 0.024169, 51.496567 ], [ 0.024928, 51.496608 ], [ 0.025819, 51.496681 ], [ 0.027781, 51.496689 ], [ 0.029173, 51.496711 ], [ 0.031532, 51.497146 ], [ 0.033617, 51.497364 ], [ 0.035496, 51.497682 ], [ 0.038152, 51.497941 ], [ 0.039868, 51.498135 ], [ 0.041987, 51.498118 ], [ 0.043812, 51.497985 ], [ 0.04629, 51.497726 ], [ 0.049687, 51.497705 ], [ 0.052703, 51.49736 ], [ 0.052712, 51.497574 ], [ 0.052797, 51.498022 ], [ 0.052854, 51.498608 ], [ 0.053253, 51.499617 ], [ 0.053516, 51.500521 ], [ 0.053783, 51.501155 ], [ 0.05372, 51.501979 ], [ 0.053794, 51.502644 ], [ 0.054136, 51.503071 ], [ 0.054737, 51.503697 ], [ 0.055419, 51.503936 ], [ 0.056325, 51.5039 ], [ 0.05795, 51.503596 ], [ 0.059237, 51.503349 ], [ 0.060146, 51.502802 ], [ 0.061174, 51.502099 ], [ 0.061193, 51.502091 ], [ 0.062317, 51.501217 ], [ 0.063338, 51.500559 ], [ 0.06411, 51.499305 ], [ 0.064624, 51.496959 ], [ 0.06652, 51.496821 ], [ 0.069079, 51.496797 ], [ 0.068981, 51.497544 ], [ 0.068505, 51.49912 ], [ 0.068358, 51.499503 ], [ 0.068489, 51.499642 ], [ 0.06856, 51.499998 ], [ 0.068513, 51.500451 ], [ 0.068765, 51.500747 ], [ 0.069263, 51.501002 ], [ 0.069291, 51.501425 ], [ 0.069741, 51.50243 ], [ 0.070016, 51.5032 ], [ 0.069634, 51.503962 ], [ 0.069233, 51.504657 ], [ 0.069088, 51.505031 ], [ 0.068731, 51.505255 ], [ 0.068822, 51.506191 ], [ 0.068934, 51.507175 ], [ 0.069126, 51.507706 ], [ 0.06962, 51.508264 ], [ 0.069979, 51.508993 ], [ 0.070345, 51.509716 ], [ 0.070537, 51.509961 ], [ 0.071157, 51.510601 ], [ 0.071756, 51.511315 ], [ 0.072451, 51.511776 ], [ 0.073165, 51.512318 ], [ 0.074162, 51.512826 ], [ 0.075141, 51.513216 ], [ 0.075838, 51.513193 ], [ 0.076655, 51.513024 ], [ 0.077225, 51.512804 ], [ 0.077911, 51.512424 ], [ 0.079454, 51.511885 ], [ 0.080752, 51.5118 ], [ 0.081359, 51.511893 ], [ 0.08196, 51.512232 ], [ 0.082583, 51.512716 ], [ 0.083042, 51.513289 ], [ 0.083324, 51.51398 ], [ 0.083209, 51.514395 ], [ 0.082935, 51.514651 ], [ 0.082403, 51.515136 ], [ 0.08206, 51.515568 ], [ 0.081947, 51.515842 ], [ 0.08206, 51.516058 ], [ 0.082189, 51.516233 ], [ 0.082586, 51.516394 ], [ 0.083063, 51.516593 ], [ 0.083792, 51.516891 ], [ 0.084572, 51.517154 ], [ 0.085492, 51.517377 ], [ 0.086006, 51.517646 ], [ 0.087275, 51.517773 ], [ 0.088208, 51.517839 ], [ 0.089524, 51.51797 ], [ 0.090212, 51.518289 ], [ 0.091306, 51.518685 ], [ 0.092111, 51.518851 ], [ 0.092361, 51.518724 ], [ 0.09288, 51.518819 ], [ 0.093368, 51.518916 ], [ 0.093969, 51.518894 ], [ 0.094115, 51.518452 ], [ 0.09438, 51.517832 ], [ 0.093895, 51.517678 ], [ 0.09367, 51.517314 ], [ 0.093897, 51.517264 ], [ 0.094399, 51.517246 ], [ 0.09462, 51.517169 ], [ 0.094787, 51.516951 ], [ 0.095142, 51.516313 ], [ 0.09488, 51.514824 ], [ 0.095211, 51.514839 ], [ 0.096139, 51.514868 ], [ 0.096285, 51.513663 ], [ 0.096239, 51.512865 ], [ 0.096141, 51.511356 ], [ 0.096889, 51.511385 ], [ 0.097879, 51.511479 ], [ 0.09938, 51.511653 ], [ 0.100488, 51.51159 ], [ 0.101826, 51.511585 ], [ 0.103483, 51.51148 ], [ 0.105499, 51.511593 ], [ 0.107383, 51.511606 ], [ 0.109273, 51.511877 ], [ 0.111175, 51.512125 ], [ 0.112202, 51.512472 ], [ 0.11471, 51.512985 ], [ 0.117386, 51.513772 ], [ 0.118103, 51.513991 ], [ 0.118305, 51.513841 ], [ 0.118758, 51.513047 ], [ 0.118762, 51.513038 ], [ 0.119928, 51.511948 ], [ 0.120308, 51.511518 ], [ 0.120545, 51.511096 ], [ 0.120678, 51.510538 ], [ 0.120639, 51.509638 ], [ 0.12045, 51.508625 ], [ 0.120498, 51.50682 ], [ 0.120574, 51.505061 ], [ 0.120505, 51.502904 ], [ 0.120441, 51.501663 ], [ 0.12063, 51.500695 ], [ 0.120469, 51.498997 ], [ 0.120345, 51.497 ], [ 0.120386, 51.495889 ], [ 0.120339, 51.494769 ], [ 0.120399, 51.493541 ], [ 0.120439, 51.493315 ], [ 0.120392, 51.493031 ], [ 0.120384, 51.492483 ], [ 0.120429, 51.492015 ], [ 0.120465, 51.491531 ], [ 0.120314, 51.491005 ], [ 0.12044, 51.490592 ], [ 0.120449, 51.490287 ], [ 0.12045, 51.489623 ], [ 0.120513, 51.48908 ], [ 0.120521, 51.488471 ], [ 0.120311, 51.487815 ], [ 0.120593, 51.487277 ], [ 0.120852, 51.486771 ], [ 0.121052, 51.486172 ], [ 0.121086, 51.48578 ], [ 0.120969, 51.485226 ], [ 0.12092, 51.484481 ], [ 0.120946, 51.483667 ], [ 0.121011, 51.482852 ], [ 0.121025, 51.482127 ], [ 0.121421, 51.481385 ], [ 0.121612, 51.480704 ], [ 0.121955, 51.480008 ], [ 0.122081, 51.479177 ], [ 0.122243, 51.478932 ], [ 0.12235, 51.478363 ], [ 0.122622, 51.477776 ], [ 0.122787, 51.477319 ], [ 0.123152, 51.476865 ], [ 0.122984, 51.476901 ], [ 0.122727, 51.477141 ], [ 0.122381, 51.477375 ], [ 0.121797, 51.477649 ], [ 0.121121, 51.478014 ], [ 0.120456, 51.478278 ], [ 0.119697, 51.47863 ], [ 0.119175, 51.478741 ], [ 0.118584, 51.478803 ], [ 0.117752, 51.478862 ], [ 0.117262, 51.478962 ], [ 0.11688, 51.478748 ], [ 0.116502, 51.478402 ], [ 0.116074, 51.478015 ], [ 0.115677, 51.477663 ], [ 0.115147, 51.477145 ], [ 0.114525, 51.476412 ], [ 0.113903, 51.475851 ], [ 0.113094, 51.475295 ], [ 0.112714, 51.475018 ], [ 0.112284, 51.474391 ], [ 0.111712, 51.473701 ], [ 0.11129, 51.473526 ], [ 0.110871, 51.473183 ], [ 0.110638, 51.473333 ], [ 0.110482, 51.473387 ], [ 0.110328, 51.473208 ], [ 0.11008, 51.473406 ], [ 0.109724, 51.47362 ], [ 0.109449, 51.473856 ], [ 0.109153, 51.47415 ], [ 0.108938, 51.474355 ], [ 0.108498, 51.474728 ], [ 0.108109, 51.474923 ], [ 0.107616, 51.475349 ], [ 0.107188, 51.475734 ], [ 0.106957, 51.475723 ], [ 0.106587, 51.475719 ], [ 0.106074, 51.475728 ], [ 0.10528, 51.475719 ], [ 0.105031, 51.475577 ], [ 0.104696, 51.475411 ], [ 0.104296, 51.47522 ], [ 0.103952, 51.475161 ], [ 0.103615, 51.475115 ], [ 0.103084, 51.475048 ], [ 0.102331, 51.475101 ], [ 0.101534, 51.47507 ], [ 0.100818, 51.475015 ], [ 0.099904, 51.475031 ], [ 0.099159, 51.474996 ], [ 0.098491, 51.474968 ], [ 0.098071, 51.474978 ], [ 0.098007, 51.474909 ], [ 0.097886, 51.474733 ], [ 0.097756, 51.474463 ], [ 0.097468, 51.473987 ], [ 0.097063, 51.473644 ], [ 0.09672, 51.473288 ], [ 0.096447, 51.472962 ], [ 0.096417, 51.472572 ], [ 0.096565, 51.472181 ], [ 0.096467, 51.472124 ], [ 0.096076, 51.472067 ], [ 0.095679, 51.472016 ], [ 0.095235, 51.472062 ], [ 0.094662, 51.472058 ], [ 0.094132, 51.472005 ], [ 0.093561, 51.471929 ], [ 0.092895, 51.471735 ], [ 0.092755, 51.471636 ], [ 0.092365, 51.471322 ], [ 0.091682, 51.471058 ], [ 0.091358, 51.470794 ], [ 0.091058, 51.470585 ], [ 0.09061, 51.470242 ], [ 0.090207, 51.46992 ], [ 0.089786, 51.469634 ], [ 0.089294, 51.469184 ], [ 0.088958, 51.468961 ], [ 0.08862, 51.468865 ], [ 0.087916, 51.468666 ], [ 0.087042, 51.468477 ], [ 0.086596, 51.468212 ], [ 0.08588, 51.467946 ], [ 0.085691, 51.467796 ], [ 0.085208, 51.467444 ], [ 0.084772, 51.467039 ], [ 0.084454, 51.466685 ], [ 0.08408, 51.466339 ], [ 0.083785, 51.465838 ], [ 0.083409, 51.465424 ], [ 0.083133, 51.464809 ], [ 0.082579, 51.465022 ], [ 0.082046, 51.465046 ], [ 0.082079, 51.464817 ], [ 0.082026, 51.464618 ], [ 0.08223, 51.464388 ], [ 0.082402, 51.464125 ], [ 0.082549, 51.463871 ], [ 0.082578, 51.463696 ], [ 0.082612, 51.463447 ], [ 0.08236, 51.462873 ], [ 0.082313, 51.462136 ], [ 0.082259, 51.461822 ], [ 0.082346, 51.461488 ], [ 0.082446, 51.461085 ], [ 0.082627, 51.46068 ], [ 0.083031, 51.460277 ], [ 0.08372, 51.459583 ], [ 0.084105, 51.459186 ], [ 0.08425, 51.458843 ], [ 0.084627, 51.458222 ], [ 0.084998, 51.457459 ], [ 0.085916, 51.456492 ], [ 0.08597, 51.456311 ], [ 0.086075, 51.456009 ], [ 0.086251, 51.455632 ], [ 0.086271, 51.455226 ], [ 0.08644, 51.454821 ], [ 0.08653, 51.454254 ], [ 0.086646, 51.453791 ], [ 0.08669, 51.453144 ], [ 0.086828, 51.452334 ], [ 0.086861, 51.451647 ], [ 0.087047, 51.450796 ], [ 0.087061, 51.450001 ], [ 0.087128, 51.449618 ], [ 0.087311, 51.449335 ], [ 0.087434, 51.449162 ], [ 0.087698, 51.448714 ], [ 0.087854, 51.448464 ], [ 0.08804, 51.448039 ], [ 0.088225, 51.447579 ], [ 0.088311, 51.447267 ], [ 0.088188, 51.447012 ], [ 0.087788, 51.446609 ], [ 0.087505, 51.446238 ], [ 0.08735, 51.445473 ], [ 0.087404, 51.445156 ], [ 0.087259, 51.444936 ], [ 0.086934, 51.444744 ], [ 0.086568, 51.444609 ], [ 0.086234, 51.444526 ], [ 0.086236, 51.444429 ], [ 0.086356, 51.44419 ], [ 0.086445, 51.443673 ], [ 0.086616, 51.443271 ], [ 0.086921, 51.442724 ], [ 0.087123, 51.442317 ], [ 0.086762, 51.442331 ], [ 0.086318, 51.442288 ], [ 0.08599, 51.442265 ], [ 0.085527, 51.442121 ], [ 0.084841, 51.441831 ], [ 0.084015, 51.44154 ], [ 0.083689, 51.441664 ], [ 0.083492, 51.441814 ], [ 0.083216, 51.441961 ], [ 0.082992, 51.442117 ], [ 0.082658, 51.442271 ], [ 0.082506, 51.442267 ], [ 0.082389, 51.442073 ], [ 0.082317, 51.441474 ], [ 0.082174, 51.441294 ], [ 0.08182, 51.440829 ], [ 0.081044, 51.440154 ], [ 0.080548, 51.439839 ], [ 0.080248, 51.439541 ], [ 0.079883, 51.439205 ], [ 0.079489, 51.438734 ], [ 0.079052, 51.438159 ], [ 0.07876, 51.437687 ], [ 0.078276, 51.437195 ], [ 0.077871, 51.436535 ], [ 0.077532, 51.4361 ], [ 0.077488, 51.435971 ], [ 0.077325, 51.435959 ], [ 0.077065, 51.435729 ], [ 0.076562, 51.435199 ], [ 0.076751, 51.4349 ], [ 0.076629, 51.434683 ], [ 0.076548, 51.434414 ], [ 0.076453, 51.434192 ], [ 0.076405, 51.433945 ], [ 0.076411, 51.433706 ], [ 0.076129, 51.43357 ], [ 0.075821, 51.43339 ], [ 0.075261, 51.433095 ], [ 0.074786, 51.432806 ], [ 0.074443, 51.432559 ], [ 0.073819, 51.432143 ], [ 0.073059, 51.431488 ], [ 0.072318, 51.430874 ], [ 0.071506, 51.43002 ], [ 0.070882, 51.429462 ], [ 0.070359, 51.428968 ], [ 0.069691, 51.42824 ], [ 0.069246, 51.427592 ], [ 0.068871, 51.427172 ], [ 0.068101, 51.4265 ], [ 0.067646, 51.426343 ], [ 0.067108, 51.426129 ], [ 0.066563, 51.425907 ], [ 0.066255, 51.425793 ], [ 0.065847, 51.425696 ], [ 0.065385, 51.425826 ], [ 0.064935, 51.42577 ], [ 0.064487, 51.425558 ], [ 0.064104, 51.425188 ], [ 0.063597, 51.424657 ], [ 0.063144, 51.424151 ], [ 0.062728, 51.423848 ], [ 0.062659, 51.42372 ], [ 0.062242, 51.423582 ], [ 0.062014, 51.423641 ], [ 0.061604, 51.424263 ], [ 0.061143, 51.424853 ], [ 0.061048, 51.425042 ], [ 0.060022, 51.424705 ], [ 0.059545, 51.424521 ], [ 0.059267, 51.424479 ], [ 0.058943, 51.424475 ], [ 0.0588, 51.424566 ], [ 0.058549, 51.424697 ], [ 0.057602, 51.425841 ], [ 0.055885, 51.426814 ], [ 0.053624, 51.428639 ], [ 0.05205, 51.430369 ], [ 0.050024, 51.43229 ], [ 0.047821, 51.434118 ], [ 0.046399, 51.435234 ], [ 0.043319, 51.437483 ], [ 0.041422, 51.439716 ], [ 0.03892, 51.44128 ], [ 0.035806, 51.442649 ], [ 0.032555, 51.444153 ], [ 0.030202, 51.443842 ], [ 0.02977, 51.441773 ], [ 0.027402, 51.440475 ], [ 0.025308, 51.439493 ], [ 0.025862, 51.437381 ], [ 0.026452, 51.435699 ], [ 0.028849, 51.434985 ], [ 0.030798, 51.434061 ], [ 0.032923, 51.432729 ], [ 0.03532, 51.431106 ], [ 0.037688, 51.431047 ], [ 0.038021, 51.429591 ], [ 0.038451, 51.427377 ], [ 0.039008, 51.425713 ], [ 0.039213, 51.424691 ], [ 0.038688, 51.424668 ], [ 0.037853, 51.424741 ], [ 0.036394, 51.424799 ], [ 0.034803, 51.424969 ], [ 0.033533, 51.425392 ], [ 0.032096, 51.425594 ], [ 0.031307, 51.425787 ], [ 0.030341, 51.425801 ], [ 0.029577, 51.426037 ], [ 0.02887, 51.426179 ], [ 0.028479, 51.426263 ], [ 0.028477, 51.426721 ], [ 0.028118, 51.426895 ], [ 0.027716, 51.427276 ], [ 0.027343, 51.427391 ], [ 0.026771, 51.427454 ], [ 0.026436, 51.428205 ], [ 0.026354, 51.428521 ], [ 0.026119, 51.428677 ], [ 0.025158, 51.428227 ], [ 0.024119, 51.427615 ], [ 0.023282, 51.427265 ], [ 0.022186, 51.426836 ], [ 0.021918, 51.426816 ], [ 0.021469, 51.426876 ], [ 0.020514, 51.426926 ], [ 0.020095, 51.427016 ], [ 0.019831, 51.427038 ], [ 0.018905, 51.42684 ], [ 0.018014, 51.426687 ], [ 0.017095, 51.42644 ], [ 0.016287, 51.426166 ], [ 0.015757, 51.426011 ], [ 0.014988, 51.425981 ], [ 0.01446, 51.426021 ], [ 0.014073, 51.426012 ], [ 0.014123, 51.425607 ], [ 0.014021, 51.42541 ], [ 0.01347, 51.425147 ], [ 0.012588, 51.424577 ], [ 0.01092, 51.42379 ], [ 0.010416, 51.423238 ], [ 0.009462, 51.422845 ], [ 0.008895, 51.422449 ], [ 0.008161, 51.421975 ], [ 0.007288, 51.421424 ], [ 0.006622, 51.42102 ], [ 0.006073, 51.420627 ], [ 0.005818, 51.420427 ], [ 0.005787, 51.42008 ], [ 0.005724, 51.419797 ], [ 0.005528, 51.419547 ], [ 0.005279, 51.419235 ], [ 0.005046, 51.419108 ], [ 0.004935, 51.418713 ], [ 0.005118, 51.418462 ], [ 0.005166, 51.418183 ], [ 0.005131, 51.417875 ], [ 0.00466, 51.417201 ], [ 0.004295, 51.416646 ], [ 0.00387, 51.416008 ], [ 0.003575, 51.415177 ], [ 0.003203, 51.414976 ], [ 0.002069, 51.414471 ], [ 0.000573, 51.414092 ], [ -0.00064, 51.413973 ], [ -0.001618, 51.413846 ], [ -0.003221, 51.413529 ], [ -0.004018, 51.413236 ], [ -0.004718, 51.413159 ], [ -0.005393, 51.413091 ], [ -0.00615, 51.413235 ], [ -0.0068, 51.413455 ], [ -0.007, 51.413628 ], [ -0.007356, 51.413853 ], [ -0.008816, 51.414224 ], [ -0.010552, 51.414713 ], [ -0.011546, 51.415143 ], [ -0.012437, 51.415513 ], [ -0.01364, 51.416177 ], [ -0.014586, 51.416704 ], [ -0.015695, 51.41718 ], [ -0.01653, 51.417545 ], [ -0.017591, 51.417915 ], [ -0.018148, 51.418354 ], [ -0.018763, 51.418595 ], [ -0.019101, 51.419097 ], [ -0.019666, 51.419483 ], [ -0.020438, 51.419796 ], [ -0.021135, 51.420101 ], [ -0.021322, 51.420323 ], [ -0.021454, 51.42043 ], [ -0.021724, 51.420441 ], [ -0.022133, 51.421076 ], [ -0.022331, 51.421601 ], [ -0.022854, 51.422127 ], [ -0.023219, 51.422485 ], [ -0.023561, 51.422802 ], [ -0.024278, 51.423156 ], [ -0.024992, 51.423415 ], [ -0.025796, 51.423566 ], [ -0.026533, 51.423965 ], [ -0.027303, 51.424392 ], [ -0.028046, 51.424846 ], [ -0.02867, 51.425201 ], [ -0.029219, 51.425491 ], [ -0.029534, 51.425545 ], [ -0.029939, 51.425528 ], [ -0.030448, 51.425503 ], [ -0.03113, 51.425432 ], [ -0.031417, 51.425463 ], [ -0.031998, 51.425341 ], [ -0.032742, 51.425253 ], [ -0.033551, 51.425066 ], [ -0.034386, 51.424829 ], [ -0.035132, 51.42457 ], [ -0.035784, 51.424287 ], [ -0.035891, 51.424104 ], [ -0.036635, 51.424026 ], [ -0.037566, 51.42383 ], [ -0.038364, 51.423743 ], [ -0.039342, 51.423999 ], [ -0.039972, 51.424098 ], [ -0.040634, 51.424127 ], [ -0.041167, 51.423881 ], [ -0.041692, 51.423563 ], [ -0.042274, 51.423424 ], [ -0.042875, 51.423159 ], [ -0.043433, 51.422913 ], [ -0.044253, 51.422672 ], [ -0.045555, 51.422549 ], [ -0.046506, 51.422473 ], [ -0.046918, 51.422606 ], [ -0.048033, 51.422608 ], [ -0.048902, 51.422481 ], [ -0.049602, 51.422487 ], [ -0.05007, 51.422393 ], [ -0.050869, 51.422261 ], [ -0.051542, 51.422274 ], [ -0.052114, 51.422364 ], [ -0.052815, 51.422507 ], [ -0.053561, 51.422778 ], [ -0.054246, 51.42281 ], [ -0.055086, 51.422767 ], [ -0.056111, 51.422776 ], [ -0.057273, 51.422863 ], [ -0.057743, 51.423105 ], [ -0.058327, 51.423252 ], [ -0.059253, 51.423522 ], [ -0.06003, 51.423841 ], [ -0.060778, 51.424211 ], [ -0.061163, 51.424335 ], [ -0.06165, 51.424452 ], [ -0.062204, 51.424708 ], [ -0.063009, 51.424722 ], [ -0.06349, 51.424782 ], [ -0.064215, 51.42491 ], [ -0.064996, 51.425141 ], [ -0.065546, 51.425238 ], [ -0.066042, 51.425371 ], [ -0.066778, 51.425592 ], [ -0.067454, 51.425631 ], [ -0.068049, 51.425763 ], [ -0.068597, 51.425898 ], [ -0.069359, 51.426097 ], [ -0.070511, 51.426248 ], [ -0.071246, 51.426201 ], [ -0.072091, 51.426161 ], [ -0.072744, 51.426128 ], [ -0.073475, 51.426199 ], [ -0.07393, 51.426163 ], [ -0.074144, 51.426132 ], [ -0.074602, 51.425887 ], [ -0.074794, 51.425371 ], [ -0.075559, 51.424406 ], [ -0.076423, 51.422996 ], [ -0.07672, 51.422261 ], [ -0.077482, 51.421098 ], [ -0.077898, 51.420272 ], [ -0.078594, 51.419859 ], [ -0.079161, 51.419429 ], [ -0.079372, 51.419391 ], [ -0.079935, 51.419368 ], [ -0.08169, 51.419369 ], [ -0.083457, 51.419421 ], [ -0.085006, 51.419159 ], [ -0.086327, 51.418825 ], [ -0.087659, 51.419187 ], [ -0.088788, 51.41959 ], [ -0.089275, 51.420397 ], [ -0.089529, 51.421194 ], [ -0.090312, 51.421556 ], [ -0.091189, 51.422085 ], [ -0.091788, 51.422592 ], [ -0.092918, 51.422757 ], [ -0.094558, 51.422818 ], [ -0.095603, 51.422696 ], [ -0.097569, 51.422648 ], [ -0.099206, 51.422657 ], [ -0.100792, 51.422679 ], [ -0.10263, 51.42271 ], [ -0.104163, 51.422711 ], [ -0.105561, 51.422666 ], [ -0.106524, 51.422689 ], [ -0.107806, 51.422873 ], [ -0.109121, 51.423135 ], [ -0.110384, 51.423145 ], [ -0.111672, 51.423162 ], [ -0.112692, 51.423356 ], [ -0.11302, 51.423052 ], [ -0.113519, 51.422699 ], [ -0.114701, 51.422153 ], [ -0.115721, 51.421494 ], [ -0.116747, 51.421052 ], [ -0.118025, 51.420707 ], [ -0.11891, 51.420403 ], [ -0.119835, 51.419928 ], [ -0.120812, 51.419556 ], [ -0.121012, 51.419347 ], [ -0.121148, 51.419105 ], [ -0.121562, 51.418562 ], [ -0.121776, 51.418258 ], [ -0.122126, 51.417631 ], [ -0.122677, 51.417067 ], [ -0.12388, 51.415723 ], [ -0.124637, 51.414852 ], [ -0.125266, 51.414256 ], [ -0.125732, 51.41398 ], [ -0.126551, 51.413866 ], [ -0.127343, 51.413587 ], [ -0.127905, 51.413186 ], [ -0.127999, 51.412562 ], [ -0.128351, 51.411686 ], [ -0.128597, 51.411718 ], [ -0.129214, 51.411818 ], [ -0.130562, 51.41177 ], [ -0.131479, 51.411523 ], [ -0.132538, 51.411318 ], [ -0.133722, 51.411394 ], [ -0.135159, 51.411652 ], [ -0.137839, 51.411983 ], [ -0.139476, 51.41234 ], [ -0.141732, 51.412954 ], [ -0.14328, 51.413439 ], [ -0.143683, 51.413229 ], [ -0.14391, 51.413007 ], [ -0.143955, 51.412485 ], [ -0.144835, 51.412243 ], [ -0.146228, 51.412243 ], [ -0.147333, 51.412408 ], [ -0.147194, 51.41259 ], [ -0.146856, 51.413045 ], [ -0.146698, 51.413916 ], [ -0.146773, 51.414906 ], [ -0.146345, 51.414769 ], [ -0.146182, 51.414979 ], [ -0.145503, 51.416327 ], [ -0.144656, 51.417387 ], [ -0.144851, 51.417724 ], [ -0.1454, 51.417873 ], [ -0.146119, 51.418045 ], [ -0.146697, 51.418257 ], [ -0.147017, 51.418488 ], [ -0.147256, 51.418514 ], [ -0.14752, 51.418733 ], [ -0.147947, 51.419161 ], [ -0.148259, 51.419357 ], [ -0.148498, 51.419329 ], [ -0.149021, 51.419408 ], [ -0.149327, 51.4196 ], [ -0.150017, 51.42 ], [ -0.150803, 51.420296 ], [ -0.151632, 51.420469 ], [ -0.15177, 51.420287 ], [ -0.152206, 51.420124 ], [ -0.15291, 51.420326 ], [ -0.154241, 51.420845 ], [ -0.155989, 51.421421 ], [ -0.157604, 51.421843 ], [ -0.159126, 51.422357 ], [ -0.160137, 51.422734 ], [ -0.160521, 51.422243 ], [ -0.161314, 51.421392 ], [ -0.161595, 51.420992 ], [ -0.161763, 51.42081 ], [ -0.162081, 51.420579 ], [ -0.162702, 51.420543 ], [ -0.163348, 51.420556 ], [ -0.164347, 51.420615 ], [ -0.165241, 51.420708 ], [ -0.166249, 51.420816 ], [ -0.167306, 51.420996 ], [ -0.16881, 51.421406 ], [ -0.170164, 51.421845 ], [ -0.17118, 51.422291 ], [ -0.171517, 51.422746 ], [ -0.171752, 51.423015 ], [ -0.172227, 51.423459 ], [ -0.172726, 51.423839 ], [ -0.173559, 51.424156 ], [ -0.174965, 51.423486 ], [ -0.176519, 51.422709 ], [ -0.177308, 51.422525 ], [ -0.177627, 51.422905 ], [ -0.174474, 51.424387 ], [ -0.174917, 51.424627 ], [ -0.176718, 51.424494 ], [ -0.177853, 51.424374 ], [ -0.178085, 51.42322 ], [ -0.180504, 51.423154 ], [ -0.180709, 51.423697 ], [ -0.181195, 51.4249 ], [ -0.181688, 51.425148 ], [ -0.18221, 51.425446 ], [ -0.183096, 51.426275 ], [ -0.18359, 51.426994 ], [ -0.183703, 51.42732 ], [ -0.183894, 51.427883 ], [ -0.184098, 51.428143 ], [ -0.184675, 51.428728 ], [ -0.185429, 51.429107 ], [ -0.184204, 51.429391 ], [ -0.183986, 51.429742 ], [ -0.183823, 51.430384 ], [ -0.183674, 51.431011 ], [ -0.183618, 51.431572 ], [ -0.183637, 51.431592 ], [ -0.183855, 51.431703 ], [ -0.184425, 51.43184 ], [ -0.184627, 51.431673 ], [ -0.184711, 51.431726 ], [ -0.184629, 51.431968 ], [ -0.184674, 51.432143 ], [ -0.184489, 51.432186 ], [ -0.184387, 51.43244 ], [ -0.184729, 51.432602 ], [ -0.184764, 51.432501 ], [ -0.184911, 51.432328 ], [ -0.185325, 51.432402 ], [ -0.185387, 51.432547 ], [ -0.185115, 51.432723 ], [ -0.185135, 51.432921 ], [ -0.185423, 51.432953 ], [ -0.185863, 51.433011 ], [ -0.18611, 51.433135 ], [ -0.186106, 51.433406 ], [ -0.186505, 51.433664 ], [ -0.186728, 51.433566 ], [ -0.187403, 51.43358 ], [ -0.187712, 51.433468 ], [ -0.18839, 51.433204 ], [ -0.189528, 51.432753 ], [ -0.189503, 51.433018 ], [ -0.189503, 51.433485 ], [ -0.189612, 51.433902 ], [ -0.18963, 51.434349 ], [ -0.189473, 51.434845 ], [ -0.189242, 51.435399 ], [ -0.189414, 51.435723 ], [ -0.189081, 51.435969 ], [ -0.188987, 51.436076 ], [ -0.188674, 51.436324 ], [ -0.188401, 51.436529 ], [ -0.188595, 51.436945 ], [ -0.188751, 51.43762 ], [ -0.188716, 51.438299 ], [ -0.188581, 51.438729 ], [ -0.189659, 51.439328 ], [ -0.189588, 51.440362 ], [ -0.189265, 51.441759 ], [ -0.191419, 51.441611 ], [ -0.19452, 51.441164 ], [ -0.19657, 51.440777 ], [ -0.199638, 51.440221 ], [ -0.201974, 51.439907 ], [ -0.204914, 51.439747 ], [ -0.207438, 51.439435 ], [ -0.209618, 51.439155 ], [ -0.211569, 51.439056 ], [ -0.215159, 51.439156 ], [ -0.215508, 51.439396 ], [ -0.216493, 51.439918 ], [ -0.21785, 51.440089 ], [ -0.219029, 51.440113 ], [ -0.220175, 51.440256 ], [ -0.222277, 51.440588 ], [ -0.223319, 51.440594 ], [ -0.224292, 51.440512 ], [ -0.224979, 51.440621 ], [ -0.226596, 51.44061 ], [ -0.229818, 51.44043 ], [ -0.2311, 51.440277 ], [ -0.234032, 51.439497 ], [ -0.236567, 51.438289 ], [ -0.239143, 51.436669 ], [ -0.239671, 51.436105 ], [ -0.240068, 51.435875 ], [ -0.241112, 51.435305 ], [ -0.242842, 51.434559 ], [ -0.245513, 51.433741 ], [ -0.247638, 51.433358 ], [ -0.249076, 51.433034 ], [ -0.250369, 51.432968 ], [ -0.250346, 51.433212 ], [ -0.250273, 51.43355 ], [ -0.250344, 51.434341 ], [ -0.250699, 51.435075 ], [ -0.251244, 51.435452 ], [ -0.252447, 51.436605 ], [ -0.252934, 51.437126 ], [ -0.253193, 51.437537 ], [ -0.253416, 51.438475 ], [ -0.253736, 51.439213 ], [ -0.254149, 51.439652 ], [ -0.254087, 51.440193 ], [ -0.253636, 51.440499 ], [ -0.25372, 51.440795 ], [ -0.25403, 51.441167 ], [ -0.253867, 51.441795 ], [ -0.254061, 51.441969 ], [ -0.254044, 51.442169 ], [ -0.25372, 51.4423 ], [ -0.253906, 51.442594 ], [ -0.253906, 51.443047 ], [ -0.254355, 51.443402 ], [ -0.254538, 51.443721 ], [ -0.254065, 51.444525 ], [ -0.253488, 51.445859 ], [ -0.253018, 51.446775 ], [ -0.25268, 51.44749 ], [ -0.252591, 51.447955 ], [ -0.252716, 51.449136 ], [ -0.252801, 51.450286 ], [ -0.252737, 51.450952 ], [ -0.252926, 51.45155 ], [ -0.253491, 51.451939 ], [ -0.254405, 51.452354 ], [ -0.255556, 51.452957 ], [ -0.256801, 51.453633 ], [ -0.257816, 51.454296 ], [ -0.258596, 51.455233 ], [ -0.25964, 51.456542 ], [ -0.259737, 51.456942 ], [ -0.259609, 51.4588 ], [ -0.259435, 51.460029 ], [ -0.258815, 51.461752 ], [ -0.258584, 51.462737 ], [ -0.259659, 51.463148 ], [ -0.258723, 51.464892 ], [ -0.256741, 51.466854 ], [ -0.255458, 51.467928 ], [ -0.254398, 51.468383 ], [ -0.253151, 51.46792 ], [ -0.252448, 51.467736 ], [ -0.250989, 51.467706 ], [ -0.247288, 51.467809 ], [ -0.245044, 51.467603 ], [ -0.242451, 51.46702 ], [ -0.239794, 51.466659 ], [ -0.237063, 51.466268 ], [ -0.235547, 51.465875 ], [ -0.235114, 51.465853 ], [ -0.235118, 51.466196 ], [ -0.234979, 51.467497 ], [ -0.234437, 51.467665 ], [ -0.234214, 51.467875 ], [ -0.234477, 51.468367 ], [ -0.234723, 51.468908 ], [ -0.234594, 51.469558 ], [ -0.234124, 51.470355 ], [ -0.233768, 51.471383 ], [ -0.233611, 51.47236 ], [ -0.2333, 51.472808 ], [ -0.232445, 51.473041 ], [ -0.231311, 51.472891 ], [ -0.230574, 51.472707 ], [ -0.230072, 51.472444 ], [ -0.22988, 51.472274 ], [ -0.229102, 51.472136 ], [ -0.228731, 51.472031 ], [ -0.228593, 51.471773 ], [ -0.228574, 51.471598 ], [ -0.227769, 51.471071 ], [ -0.227325, 51.471355 ], [ -0.226887, 51.470995 ], [ -0.227252, 51.470802 ], [ -0.227257, 51.470543 ], [ -0.226118, 51.470355 ], [ -0.225767, 51.470277 ], [ -0.225237, 51.470562 ], [ -0.224477, 51.470697 ], [ -0.223834, 51.471038 ], [ -0.224059, 51.471334 ], [ -0.223405, 51.471626 ], [ -0.222714, 51.471956 ], [ -0.222121, 51.472196 ], [ -0.222987, 51.472948 ], [ -0.22367, 51.473733 ], [ -0.224452, 51.474717 ], [ -0.224994, 51.475653 ], [ -0.225371, 51.476598 ], [ -0.225342, 51.477384 ], [ -0.225559, 51.477923 ], [ -0.225666, 51.478207 ], [ -0.225555, 51.478498 ], [ -0.225457, 51.478832 ], [ -0.225308, 51.479132 ], [ -0.225146, 51.479357 ], [ -0.225295, 51.47957 ], [ -0.225491, 51.479972 ], [ -0.22571, 51.480601 ], [ -0.225656, 51.481006 ], [ -0.225435, 51.481346 ], [ -0.225282, 51.481645 ], [ -0.22556, 51.482244 ], [ -0.225914, 51.483317 ], [ -0.226092, 51.484216 ], [ -0.226469, 51.48495 ], [ -0.227036, 51.485622 ], [ -0.22751, 51.48619 ], [ -0.227785, 51.486482 ], [ -0.227927, 51.486606 ], [ -0.229088, 51.487486 ], [ -0.229689, 51.48791 ], [ -0.23048, 51.488289 ], [ -0.231046, 51.488707 ], [ -0.23192, 51.488954 ], [ -0.232691, 51.489289 ], [ -0.233196, 51.489363 ], [ -0.233497, 51.489327 ], [ -0.23484, 51.489555 ], [ -0.236467, 51.489665 ], [ -0.237983, 51.489758 ], [ -0.239299, 51.489658 ], [ -0.24089, 51.489504 ], [ -0.242098, 51.489085 ], [ -0.243201, 51.488652 ], [ -0.243889, 51.488243 ], [ -0.244575, 51.488721 ], [ -0.245209, 51.489281 ], [ -0.245786, 51.489985 ], [ -0.246169, 51.490469 ], [ -0.245885, 51.491063 ], [ -0.245791, 51.491603 ], [ -0.245489, 51.492334 ], [ -0.245513, 51.492943 ], [ -0.245294, 51.493348 ], [ -0.245224, 51.493622 ], [ -0.244714, 51.494661 ], [ -0.244053, 51.495908 ], [ -0.243601, 51.496647 ], [ -0.243251, 51.497298 ], [ -0.243195, 51.497867 ], [ -0.2431, 51.498394 ], [ -0.243803, 51.498072 ], [ -0.244498, 51.497939 ], [ -0.245721, 51.497644 ], [ -0.246912, 51.497377 ], [ -0.247863, 51.497306 ], [ -0.248147, 51.497263 ], [ -0.248884, 51.498037 ], [ -0.249826, 51.498715 ], [ -0.250916, 51.49935 ], [ -0.251577, 51.499613 ], [ -0.250652, 51.500019 ], [ -0.251613, 51.500181 ], [ -0.252669, 51.500238 ], [ -0.253334, 51.500381 ], [ -0.253569, 51.501173 ], [ -0.254101, 51.502182 ], [ -0.254731, 51.502791 ], [ -0.255681, 51.503375 ], [ -0.255963, 51.503707 ], [ -0.254739, 51.504088 ], [ -0.253533, 51.50431 ], [ -0.252164, 51.504415 ], [ -0.251749, 51.504178 ], [ -0.249461, 51.504198 ], [ -0.247432, 51.50448 ], [ -0.247023, 51.50446 ], [ -0.246512, 51.503936 ], [ -0.244593, 51.504421 ], [ -0.245656, 51.506555 ], [ -0.244182, 51.506625 ], [ -0.244779, 51.508358 ], [ -0.245421, 51.509773 ], [ -0.245843, 51.510493 ], [ -0.246558, 51.511289 ], [ -0.247179, 51.511801 ], [ -0.247673, 51.512088 ], [ -0.249031, 51.512152 ], [ -0.250898, 51.51346 ], [ -0.251108, 51.514773 ], [ -0.251917, 51.517204 ], [ -0.252301, 51.518577 ], [ -0.252145, 51.519449 ], [ -0.251309, 51.520016 ], [ -0.250981, 51.520298 ], [ -0.250145, 51.520311 ], [ -0.249948, 51.520386 ], [ -0.250076, 51.520674 ], [ -0.249772, 51.520743 ], [ -0.249633, 51.520951 ], [ -0.248856, 51.520919 ], [ -0.248026, 51.521215 ], [ -0.247824, 51.521389 ], [ -0.247568, 51.521804 ], [ -0.24754, 51.522139 ], [ -0.247556, 51.522425 ], [ -0.247269, 51.522475 ], [ -0.247062, 51.522765 ], [ -0.246918, 51.522988 ], [ -0.246606, 51.523084 ], [ -0.246093, 51.523324 ], [ -0.245704, 51.52374 ], [ -0.245211, 51.524341 ], [ -0.24457, 51.524824 ], [ -0.244457, 51.525291 ], [ -0.244441, 51.525618 ], [ -0.244502, 51.525898 ], [ -0.244507, 51.526362 ], [ -0.244968, 51.526667 ], [ -0.245734, 51.527171 ], [ -0.246065, 51.527544 ], [ -0.246682, 51.527912 ], [ -0.247699, 51.527985 ], [ -0.249049, 51.528166 ], [ -0.250517, 51.528601 ], [ -0.250693, 51.528805 ], [ -0.250196, 51.529228 ], [ -0.249806, 51.529723 ], [ -0.249214, 51.530394 ], [ -0.248861, 51.530819 ], [ -0.248292, 51.531265 ], [ -0.247948, 51.531813 ], [ -0.247719, 51.532186 ], [ -0.247601, 51.532421 ], [ -0.246679, 51.532131 ], [ -0.245801, 51.531801 ], [ -0.245056, 51.531583 ], [ -0.243957, 51.531469 ], [ -0.242858, 51.531495 ], [ -0.24158, 51.53156 ], [ -0.240101, 51.531638 ], [ -0.238445, 51.531717 ], [ -0.236952, 51.532008 ], [ -0.23597, 51.532193 ], [ -0.235403, 51.532294 ], [ -0.233949, 51.531699 ], [ -0.232652, 51.531228 ], [ -0.231843, 51.530867 ], [ -0.231197, 51.530617 ], [ -0.230432, 51.530382 ], [ -0.22972, 51.530408 ], [ -0.22913, 51.530074 ], [ -0.228616, 51.529844 ], [ -0.227619, 51.529724 ], [ -0.226774, 51.529752 ], [ -0.225712, 51.529783 ], [ -0.22437, 51.52961 ], [ -0.223031, 51.529202 ], [ -0.221916, 51.528885 ], [ -0.219897, 51.528531 ], [ -0.218248, 51.528325 ], [ -0.216998, 51.528099 ], [ -0.215634, 51.527853 ], [ -0.215901, 51.528333 ], [ -0.215856, 51.529078 ], [ -0.215614, 51.529354 ], [ -0.215007, 51.529815 ], [ -0.215036, 51.530208 ], [ -0.215308, 51.530961 ], [ -0.215106, 51.531033 ], [ -0.213617, 51.531472 ], [ -0.212646, 51.531589 ], [ -0.211581, 51.53182 ], [ -0.210471, 51.531958 ], [ -0.209492, 51.532278 ], [ -0.208434, 51.532606 ], [ -0.207661, 51.532795 ], [ -0.206816, 51.533042 ], [ -0.205619, 51.533084 ], [ -0.205375, 51.533101 ], [ -0.204719, 51.533111 ], [ -0.203334, 51.533121 ], [ -0.202214, 51.533046 ], [ -0.201431, 51.532802 ], [ -0.200996, 51.532593 ], [ -0.200378, 51.532066 ], [ -0.199863, 51.531646 ], [ -0.1986, 51.531125 ], [ -0.197899, 51.530614 ], [ -0.197499, 51.530134 ], [ -0.197456, 51.529182 ], [ -0.197544, 51.52853 ], [ -0.197394, 51.528032 ], [ -0.197227, 51.527849 ], [ -0.196774, 51.527967 ], [ -0.196549, 51.527913 ], [ -0.196204, 51.527674 ], [ -0.195964, 51.527905 ], [ -0.195395, 51.528569 ], [ -0.193899, 51.530256 ], [ -0.192587, 51.53186 ], [ -0.191856, 51.532985 ], [ -0.191631, 51.533579 ], [ -0.191635, 51.534085 ], [ -0.191457, 51.534526 ], [ -0.189706, 51.535606 ], [ -0.190313, 51.536014 ], [ -0.191575, 51.537215 ], [ -0.192933, 51.538429 ], [ -0.194972, 51.540368 ], [ -0.199619, 51.543988 ], [ -0.20574, 51.547776 ], [ -0.209686, 51.550911 ], [ -0.211027, 51.551918 ], [ -0.212724, 51.553281 ], [ -0.214413, 51.55479 ], [ -0.213523, 51.555387 ], [ -0.21227, 51.555939 ], [ -0.21112, 51.556362 ], [ -0.210285, 51.555636 ], [ -0.209759, 51.555313 ], [ -0.208413, 51.555748 ], [ -0.206935, 51.556031 ], [ -0.206757, 51.554889 ], [ -0.205129, 51.555201 ], [ -0.203627, 51.555448 ], [ -0.201576, 51.555819 ], [ -0.200167, 51.555951 ], [ -0.200337, 51.556473 ], [ -0.200255, 51.557001 ], [ -0.199887, 51.557436 ], [ -0.199457, 51.557844 ], [ -0.199284, 51.558361 ], [ -0.198968, 51.558791 ], [ -0.198276, 51.559412 ], [ -0.197899, 51.559736 ], [ -0.197325, 51.559806 ], [ -0.197163, 51.560019 ], [ -0.197458, 51.560423 ], [ -0.197578, 51.560762 ], [ -0.196484, 51.56055 ], [ -0.195634, 51.560493 ], [ -0.195108, 51.560511 ], [ -0.194973, 51.560706 ], [ -0.194701, 51.560883 ], [ -0.19418, 51.561024 ], [ -0.193854, 51.561033 ], [ -0.193167, 51.561354 ], [ -0.19274, 51.56168 ], [ -0.192019, 51.561786 ], [ -0.191149, 51.561909 ], [ -0.190736, 51.562417 ], [ -0.190286, 51.56342 ], [ -0.191469, 51.564399 ], [ -0.193704, 51.564871 ], [ -0.192694, 51.56542 ], [ -0.192048, 51.565726 ], [ -0.192426, 51.565654 ], [ -0.191833, 51.565931 ], [ -0.191701, 51.566032 ], [ -0.191487, 51.566165 ], [ -0.190411, 51.566591 ], [ -0.189636, 51.567132 ], [ -0.189486, 51.567384 ], [ -0.187921, 51.56781 ], [ -0.187151, 51.568064 ], [ -0.186775, 51.568275 ], [ -0.185724, 51.568689 ], [ -0.184678, 51.569216 ], [ -0.183962, 51.569486 ], [ -0.183077, 51.569795 ], [ -0.180889, 51.569767 ], [ -0.180513, 51.569835 ], [ -0.181074, 51.570642 ], [ -0.180943, 51.570842 ], [ -0.179589, 51.570279 ], [ -0.175902, 51.57014 ], [ -0.174869, 51.57 ], [ -0.174411, 51.57015 ], [ -0.173809, 51.570626 ], [ -0.173512, 51.570776 ], [ -0.173105, 51.570909 ], [ -0.171876, 51.571397 ], [ -0.172886, 51.571711 ], [ -0.170015, 51.571712 ], [ -0.169101, 51.571847 ], [ -0.167843, 51.57208 ], [ -0.166367, 51.572467 ], [ -0.165439, 51.572538 ], [ -0.165182, 51.572368 ], [ -0.163602, 51.572332 ], [ -0.161025, 51.572444 ], [ -0.159049, 51.57239 ], [ -0.156368, 51.572043 ], [ -0.153968, 51.571859 ], [ -0.15094, 51.571743 ], [ -0.149108, 51.571646 ], [ -0.145308, 51.570563 ], [ -0.143729, 51.570196 ], [ -0.142834, 51.569877 ], [ -0.141988, 51.56956 ], [ -0.141662, 51.569339 ], [ -0.140985, 51.569413 ], [ -0.140465, 51.569521 ], [ -0.139306, 51.56999 ], [ -0.1383, 51.57056 ], [ -0.136604, 51.571318 ], [ -0.135705, 51.571691 ], [ -0.134196, 51.572419 ], [ -0.133204, 51.573075 ], [ -0.13251, 51.573475 ], [ -0.131422, 51.573722 ], [ -0.130728, 51.573858 ], [ -0.129035, 51.574098 ], [ -0.127561, 51.574279 ], [ -0.126527, 51.574335 ], [ -0.125903, 51.574209 ], [ -0.125653, 51.574022 ], [ -0.12504, 51.574178 ], [ -0.124492, 51.574313 ], [ -0.123865, 51.574634 ], [ -0.123188, 51.574799 ], [ -0.122666, 51.574842 ], [ -0.120854, 51.575221 ], [ -0.119941, 51.575373 ], [ -0.119505, 51.575416 ], [ -0.118968, 51.574986 ], [ -0.118103, 51.574587 ], [ -0.117291, 51.574058 ], [ -0.116787, 51.573647 ], [ -0.115954, 51.573025 ], [ -0.115296, 51.572475 ], [ -0.115934, 51.572001 ], [ -0.114418, 51.570739 ], [ -0.114846, 51.570466 ], [ -0.113428, 51.569796 ], [ -0.112155, 51.569211 ], [ -0.111002, 51.568683 ], [ -0.109703, 51.567945 ], [ -0.108403, 51.567306 ], [ -0.107413, 51.566576 ], [ -0.106698, 51.565859 ], [ -0.105965, 51.565307 ], [ -0.105157, 51.564861 ], [ -0.104667, 51.564596 ], [ -0.104524, 51.564432 ], [ -0.104126, 51.564552 ], [ -0.103125, 51.565305 ], [ -0.101937, 51.566008 ], [ -0.100734, 51.566789 ], [ -0.099586, 51.567654 ], [ -0.098717, 51.568504 ], [ -0.097599, 51.569284 ], [ -0.096253, 51.570286 ], [ -0.095952, 51.570615 ], [ -0.096155, 51.570842 ], [ -0.096687, 51.571748 ], [ -0.097283, 51.572942 ], [ -0.097797, 51.573895 ], [ -0.09837, 51.574945 ], [ -0.098167, 51.575018 ], [ -0.097457, 51.575341 ], [ -0.096641, 51.575578 ], [ -0.096456, 51.575312 ], [ -0.096117, 51.574922 ], [ -0.095804, 51.574499 ], [ -0.095252, 51.574428 ], [ -0.094642, 51.574359 ], [ -0.093658, 51.574324 ], [ -0.092572, 51.574425 ], [ -0.091761, 51.574435 ], [ -0.091236, 51.574606 ], [ -0.090136, 51.574853 ], [ -0.089457, 51.575012 ], [ -0.089067, 51.574944 ], [ -0.088345, 51.574916 ], [ -0.087415, 51.574958 ], [ -0.086283, 51.575031 ], [ -0.084803, 51.575177 ], [ -0.083465, 51.575295 ], [ -0.083392, 51.575322 ], [ -0.082542, 51.575447 ], [ -0.081755, 51.575554 ], [ -0.080865, 51.575688 ], [ -0.080007, 51.57566 ], [ -0.079141, 51.575607 ], [ -0.078483, 51.575459 ], [ -0.077868, 51.575256 ], [ -0.077235, 51.575865 ], [ -0.076868, 51.575818 ], [ -0.076121, 51.575675 ], [ -0.075456, 51.575661 ], [ -0.075805, 51.575227 ], [ -0.075195, 51.575236 ], [ -0.07403, 51.575464 ], [ -0.073007, 51.575523 ], [ -0.072915, 51.575537 ], [ -0.072092, 51.575552 ], [ -0.071668, 51.575524 ], [ -0.070003, 51.57562 ], [ -0.069092, 51.575802 ], [ -0.067751, 51.576021 ], [ -0.066679, 51.576115 ], [ -0.065514, 51.576274 ], [ -0.06372, 51.576416 ] ] ] } }
]
}
