{
"type": "FeatureCollection",
"name": "WestHam_1911",
"crs": { "type": "name", "properties": { "name": "urn:ogc:def:crs:OGC:1.3:CRS84" } },
"features": [
{ "type": "Feature", "properties": { "_ROWID_": 1518, "pk": 1518, "g_unit": 10025904.0, "g_name": "WEST HAM", "namestatus": "P", "g_language": "eng", "unittype": "LG_DIST", "g_status": "CB", "nation": "ENGLAND", "g_year": 1911.0, "im_auth": "GBHGIS", "im_note": null, "notes": null }, "geometry": { "type": "Polygon", "coordinates": [ [ [ 0.023324, 51.555488 ], [ 0.025941, 51.555511 ], [ 0.029212, 51.555429 ], [ 0.03296, 51.555372 ], [ 0.035357, 51.555323 ], [ 0.035377, 51.554873 ], [ 0.035472, 51.553169 ], [ 0.035466, 51.552773 ], [ 0.035499, 51.551719 ], [ 0.035498, 51.551177 ], [ 0.035376, 51.550672 ], [ 0.034623, 51.550564 ], [ 0.034987, 51.549362 ], [ 0.035449, 51.547509 ], [ 0.031136, 51.546938 ], [ 0.031848, 51.544802 ], [ 0.032275, 51.543863 ], [ 0.032603, 51.542362 ], [ 0.032638, 51.541465 ], [ 0.032441, 51.540273 ], [ 0.032775, 51.539275 ], [ 0.03383, 51.537915 ], [ 0.03479, 51.536731 ], [ 0.035628, 51.534767 ], [ 0.036917, 51.532449 ], [ 0.037342, 51.531728 ], [ 0.037857, 51.530681 ], [ 0.03777, 51.530209 ], [ 0.03748, 51.529679 ], [ 0.03769, 51.528843 ], [ 0.038122, 51.528264 ], [ 0.03943, 51.526814 ], [ 0.040257, 51.524824 ], [ 0.040757, 51.523222 ], [ 0.041517, 51.520733 ], [ 0.042083, 51.519013 ], [ 0.042872, 51.517274 ], [ 0.043566, 51.517558 ], [ 0.04398, 51.517493 ], [ 0.045105, 51.516246 ], [ 0.045147, 51.514589 ], [ 0.045283, 51.514423 ], [ 0.045627, 51.51381 ], [ 0.045637, 51.513706 ], [ 0.045556, 51.513609 ], [ 0.04553, 51.513333 ], [ 0.045755, 51.513034 ], [ 0.046236, 51.512294 ], [ 0.046211, 51.512146 ], [ 0.04714, 51.510753 ], [ 0.047913, 51.509609 ], [ 0.048055, 51.509274 ], [ 0.047963, 51.509034 ], [ 0.0486, 51.50888 ], [ 0.049447, 51.508964 ], [ 0.049799, 51.508943 ], [ 0.049799, 51.508836 ], [ 0.049691, 51.50846 ], [ 0.049442, 51.508116 ], [ 0.049453, 51.50783 ], [ 0.049672, 51.507821 ], [ 0.049561, 51.507359 ], [ 0.049628, 51.506935 ], [ 0.050666, 51.505323 ], [ 0.051432, 51.50434 ], [ 0.05189, 51.503725 ], [ 0.051932, 51.50359 ], [ 0.052361, 51.503601 ], [ 0.052618, 51.503584 ], [ 0.052717, 51.503342 ], [ 0.052787, 51.503007 ], [ 0.052767, 51.502669 ], [ 0.052606, 51.502163 ], [ 0.05255, 51.501858 ], [ 0.052529, 51.501385 ], [ 0.052278, 51.500899 ], [ 0.052237, 51.500736 ], [ 0.05238, 51.500314 ], [ 0.052559, 51.499835 ], [ 0.052802, 51.499521 ], [ 0.052766, 51.499359 ], [ 0.052526, 51.498134 ], [ 0.052279, 51.496896 ], [ 0.05038, 51.49706 ], [ 0.046361, 51.497326 ], [ 0.04355, 51.49756 ], [ 0.042195, 51.497506 ], [ 0.04062, 51.497456 ], [ 0.038815, 51.497369 ], [ 0.03595, 51.497026 ], [ 0.034486, 51.496885 ], [ 0.032175, 51.496556 ], [ 0.030287, 51.496333 ], [ 0.02807, 51.496187 ], [ 0.027058, 51.496151 ], [ 0.025629, 51.496146 ], [ 0.024486, 51.496165 ], [ 0.022791, 51.496403 ], [ 0.0202, 51.497078 ], [ 0.018232, 51.497838 ], [ 0.016782, 51.498542 ], [ 0.014605, 51.500018 ], [ 0.012834, 51.501428 ], [ 0.010974, 51.502905 ], [ 0.009528, 51.504037 ], [ 0.00817, 51.505035 ], [ 0.007315, 51.505527 ], [ 0.008469, 51.50645 ], [ 0.009194, 51.507117 ], [ 0.009602, 51.507788 ], [ 0.009668, 51.508396 ], [ 0.009589, 51.508744 ], [ 0.009158, 51.50906 ], [ 0.008603, 51.509275 ], [ 0.007607, 51.509448 ], [ 0.006782, 51.509551 ], [ 0.006328, 51.509647 ], [ 0.005816, 51.509852 ], [ 0.005782, 51.510052 ], [ 0.005959, 51.510395 ], [ 0.006158, 51.510622 ], [ 0.006788, 51.51108 ], [ 0.007228, 51.511731 ], [ 0.00753, 51.512356 ], [ 0.007614, 51.512863 ], [ 0.007577, 51.51336 ], [ 0.007293, 51.513839 ], [ 0.00685, 51.51409 ], [ 0.006429, 51.514227 ], [ 0.005981, 51.514246 ], [ 0.005334, 51.514019 ], [ 0.005056, 51.513736 ], [ 0.004805, 51.513166 ], [ 0.004764, 51.512569 ], [ 0.004602, 51.511863 ], [ 0.004212, 51.510918 ], [ 0.003686, 51.510613 ], [ 0.003143, 51.510523 ], [ 0.002442, 51.510608 ], [ 0.002132, 51.510777 ], [ 0.002093, 51.511137 ], [ 0.002336, 51.511841 ], [ 0.002625, 51.512226 ], [ 0.003061, 51.512967 ], [ 0.003546, 51.513671 ], [ 0.004042, 51.514408 ], [ 0.004095, 51.514718 ], [ 0.003882, 51.515066 ], [ 0.003397, 51.515421 ], [ 0.002913, 51.515726 ], [ 0.002335, 51.515968 ], [ 0.00165, 51.516204 ], [ 0.000567, 51.516569 ], [ -0.000187, 51.516902 ], [ -0.000828, 51.517236 ], [ -0.001661, 51.517664 ], [ -0.002355, 51.51798 ], [ -0.002723, 51.517986 ], [ -0.003626, 51.517793 ], [ -0.003953, 51.51754 ], [ -0.004413, 51.516888 ], [ -0.004929, 51.5166 ], [ -0.00524, 51.516539 ], [ -0.0055, 51.516581 ], [ -0.005699, 51.516697 ], [ -0.005882, 51.516922 ], [ -0.005919, 51.517393 ], [ -0.006038, 51.51781 ], [ -0.006443, 51.518322 ], [ -0.006849, 51.518738 ], [ -0.007205, 51.518972 ], [ -0.00817, 51.519449 ], [ -0.008874, 51.519811 ], [ -0.009027, 51.520004 ], [ -0.009092, 51.520407 ], [ -0.009072, 51.520793 ], [ -0.008845, 51.521248 ], [ -0.008513, 51.52165 ], [ -0.008362, 51.521955 ], [ -0.008303, 51.522267 ], [ -0.008136, 51.522677 ], [ -0.008057, 51.522934 ], [ -0.008068, 51.523178 ], [ -0.008179, 51.523437 ], [ -0.0081, 51.523912 ], [ -0.008095, 51.524237 ], [ -0.008061, 51.524863 ], [ -0.007937, 51.525199 ], [ -0.007805, 51.525346 ], [ -0.007518, 51.525769 ], [ -0.007489, 51.525957 ], [ -0.007573, 51.5262 ], [ -0.007774, 51.526426 ], [ -0.008085, 51.526626 ], [ -0.00834, 51.526862 ], [ -0.008485, 51.527183 ], [ -0.008683, 51.527532 ], [ -0.00904, 51.527742 ], [ -0.009772, 51.528114 ], [ -0.01044, 51.528619 ], [ -0.010672, 51.529245 ], [ -0.010769, 51.529332 ], [ -0.011258, 51.529449 ], [ -0.01191, 51.529538 ], [ -0.012953, 51.529642 ], [ -0.013614, 51.529793 ], [ -0.014017, 51.529934 ], [ -0.014172, 51.530094 ], [ -0.014147, 51.530309 ], [ -0.014134, 51.530535 ], [ -0.014398, 51.530772 ], [ -0.014839, 51.530814 ], [ -0.015385, 51.530903 ], [ -0.015463, 51.530984 ], [ -0.015541, 51.531153 ], [ -0.015591, 51.531211 ], [ -0.016821, 51.531565 ], [ -0.016215, 51.531733 ], [ -0.017257, 51.532842 ], [ -0.017588, 51.533982 ], [ -0.014987, 51.534986 ], [ -0.015739, 51.535528 ], [ -0.016809, 51.536329 ], [ -0.017515, 51.53687 ], [ -0.019362, 51.537484 ], [ -0.019376, 51.537587 ], [ -0.019294, 51.537716 ], [ -0.019267, 51.537857 ], [ -0.01921, 51.537963 ], [ -0.019084, 51.538063 ], [ -0.019343, 51.53813 ], [ -0.019536, 51.538255 ], [ -0.019269, 51.538653 ], [ -0.019108, 51.539069 ], [ -0.018951, 51.539374 ], [ -0.018586, 51.539696 ], [ -0.017969, 51.54011 ], [ -0.017825, 51.540406 ], [ -0.01783, 51.540792 ], [ -0.017737, 51.540958 ], [ -0.017582, 51.541078 ], [ -0.016749, 51.541347 ], [ -0.016591, 51.541541 ], [ -0.016403, 51.54195 ], [ -0.016014, 51.542111 ], [ -0.015518, 51.542149 ], [ -0.015469, 51.542199 ], [ -0.015971, 51.542414 ], [ -0.016027, 51.542595 ], [ -0.016079, 51.543291 ], [ -0.016082, 51.543928 ], [ -0.016131, 51.544327 ], [ -0.016131, 51.544622 ], [ -0.016202, 51.544808 ], [ -0.016373, 51.545161 ], [ -0.016329, 51.545686 ], [ -0.016079, 51.546441 ], [ -0.015921, 51.547137 ], [ -0.015978, 51.54744 ], [ -0.016096, 51.548097 ], [ -0.016407, 51.548801 ], [ -0.01651, 51.549313 ], [ -0.016656, 51.549608 ], [ -0.017068, 51.550036 ], [ -0.017174, 51.550333 ], [ -0.017125, 51.550606 ], [ -0.017237, 51.550836 ], [ -0.017177, 51.551035 ], [ -0.01717, 51.55126 ], [ -0.017115, 51.551542 ], [ -0.016458, 51.551625 ], [ -0.015731, 51.551711 ], [ -0.013499, 51.551991 ], [ -0.011845, 51.552314 ], [ -0.011135, 51.552559 ], [ -0.010609, 51.552662 ], [ -0.010132, 51.552469 ], [ -0.009654, 51.552231 ], [ -0.009548, 51.552199 ], [ -0.009189, 51.551604 ], [ -0.009138, 51.550893 ], [ -0.008995, 51.550453 ], [ -0.008726, 51.549914 ], [ -0.008608, 51.549893 ], [ -0.008132, 51.55002 ], [ -0.006315, 51.550387 ], [ -0.005683, 51.55058 ], [ -0.004969, 51.550783 ], [ -0.002875, 51.551413 ], [ -0.002511, 51.551415 ], [ 0.001644, 51.5519 ], [ 0.002423, 51.551972 ], [ 0.004834, 51.551889 ], [ 0.005747, 51.551824 ], [ 0.005791, 51.551492 ], [ 0.005712, 51.551099 ], [ 0.006029, 51.551077 ], [ 0.008004, 51.551285 ], [ 0.008961, 51.551531 ], [ 0.009441, 51.551355 ], [ 0.01025, 51.551908 ], [ 0.010384, 51.551831 ], [ 0.012386, 51.553103 ], [ 0.012687, 51.552919 ], [ 0.015665, 51.55385 ], [ 0.016829, 51.554012 ], [ 0.016946, 51.553928 ], [ 0.017094, 51.553929 ], [ 0.01829, 51.554297 ], [ 0.018601, 51.554463 ], [ 0.019156, 51.554061 ], [ 0.021471, 51.554899 ], [ 0.021254, 51.555167 ], [ 0.022016, 51.555304 ], [ 0.023324, 51.555488 ] ] ] } }
]
}
