{
  "type": "FeatureCollection",
  "features": [
    {
      "type": "Feature",
      "properties": {
        "study_area": "west_ham"
      },
      "geometry": {
        "type": "Polygon",
        "coordinates": [
          [
            [
              0.03943,
              51.526814
            ],
            [
              0.040257,
              51.524824
            ],
            [
              0.040757,
              51.523222
            ],
            [
              0.041517,
              51.520733
            ],
            [
              0.042083,
              51.519013
            ],
            [
              0.042872,
              51.517274
            ],
            [
              0.043566,
              51.517558
            ],
            [
              0.04398,
              51.517493
            ],
            [
              0.04478563352045394,
              51.5166
            ],
            [
              0.0338,
              51.5166
            ],
            [
              0.0338,
              51.5224
            ],
            [
              0.0338,
              51.5282
            ],
            [
              0.03817973241379483,
              51.5282
            ],
            [
              0.03943,
              51.526814
            ]
          ]
        ]
      }
    }
  ]
}
